[Satellite]
VERSION=1.1
NAME=IRIDIUM 162
NICKNAME=IRIDIUM 162
TLE1=1 43482U 18047G   20157.86857589  .00000063  00000-0  12709-4 0  9994
TLE2=2 43482  86.4479 288.7348 0002084  83.4921 276.6517 14.43281170107476
STATUS=0
